STARLINK-35583          
1 66611U 25270Z   25343.83335647 -.02089964  00000+0 -34824-1 0  9993
2 66611  42.9998 209.6404 0001491 269.6673 112.6545 15.54441202  4042
STARLINK-36039          
1 66612U 25270AA  25343.83335647 -.02085328  00000+0 -34743-1 0  9994
2 66612  42.9997 209.6348 0001548 269.9380 114.3054 15.54435725  3934
STARLINK-36037          
1 66613U 25270AB  25343.83335647 -.02084828  00000+0 -34735-1 0  9990
2 66613  42.9998 209.6305 0001519 271.5708 114.5900 15.54435406  3938
STARLINK-36040          
1 66614U 25270AC  25343.83335647 -.02073260  00000+0 -34528-1 0  9999
2 66614  42.9995 209.6206 0001442 267.4405 122.5545 15.54428545  3771
STARLINK-35988          
1 66615U 25270AD  25343.83335647 -.02088902  00000+0 -34807-1 0  9999
2 66615  42.9994 209.6261 0001586 262.6782 125.3970 15.54437772  3771
STARLINK-35391          
1 66616U 25270AE  25343.83335647 -.02090972  00000+0 -34842-1 0  9999
2 66616  42.9997 209.6162 0001457 272.0546 119.8529 15.54441616  4046
STARLINK-35940          
1 66617U 25271A   25343.83335647 -.02027475  00000+0 -25367-1 0  9991
2 66617  53.1593 201.2743 0000730  97.8165 258.7416 15.62629313  3777
STARLINK-35970          
1 66618U 25271B   25343.83335647 -.02024092  00000+0 -25321-1 0  9994
2 66618  53.1590 201.1615 0000817  96.9646 312.9175 15.62625888  3770
STARLINK-35951          
1 66619U 25271C   25343.83335647 -.02030330  00000+0 -25407-1 0  9992
2 66619  53.1593 201.2570 0000742  99.1380 265.0883 15.62630240  3774
STARLINK-35936          
1 66620U 25271D   25343.83335647 -.02028690  00000+0 -25385-1 0  9995
2 66620  53.1593 201.2701 0000698  96.9207 261.5553 15.62629386  3779
STARLINK-35847          
1 66621U 25271E   25343.83335647 -.02031236  00000+0 -25419-1 0  9994
2 66621  53.1597 201.1538 0000883 100.6110 312.8101 15.62629638  3772
STARLINK-35950          
1 66622U 25271F   25343.83335647 -.02025859  00000+0 -25346-1 0  9998
2 66622  53.1595 201.2541 0000709  95.2239 270.9198 15.62627479  3775
