CCSDS_OMM_VERS = 2.0
CREATION_DATE  = 
ORIGINATOR     = 

OBJECT_NAME    = STARLINK-35583
OBJECT_ID      = 2025-270Z
CENTER_NAME    = EARTH
REF_FRAME      = TEME
TIME_SYSTEM    = UTC
MEAN_ELEMENT_THEORY = SGP/SGP4

EPOCH          = 2025-12-09T20:00:01.999008
MEAN_MOTION    = 15.54441202
ECCENTRICITY   = .0001491
INCLINATION    = 42.9998
RA_OF_ASC_NODE = 209.6404
ARG_OF_PERICENTER = 269.6673
MEAN_ANOMALY   = 112.6545

EPHEMERIS_TYPE = 0
CLASSIFICATION_TYPE = U
NORAD_CAT_ID   = 66611
ELEMENT_SET_NO = 999
REV_AT_EPOCH   = 404
BSTAR          = -.34824E-1
MEAN_MOTION_DOT = -.2089964E-1
MEAN_MOTION_DDOT = 0

CCSDS_OMM_VERS = 2.0
CREATION_DATE  = 
ORIGINATOR     = 

OBJECT_NAME    = STARLINK-36039
OBJECT_ID      = 2025-270AA
CENTER_NAME    = EARTH
REF_FRAME      = TEME
TIME_SYSTEM    = UTC
MEAN_ELEMENT_THEORY = SGP/SGP4

EPOCH          = 2025-12-09T20:00:01.999008
MEAN_MOTION    = 15.54435725
ECCENTRICITY   = .0001548
INCLINATION    = 42.9997
RA_OF_ASC_NODE = 209.6348
ARG_OF_PERICENTER = 269.9380
MEAN_ANOMALY   = 114.3054

EPHEMERIS_TYPE = 0
CLASSIFICATION_TYPE = U
NORAD_CAT_ID   = 66612
ELEMENT_SET_NO = 999
REV_AT_EPOCH   = 393
BSTAR          = -.34743E-1
MEAN_MOTION_DOT = -.2085328E-1
MEAN_MOTION_DDOT = 0

CCSDS_OMM_VERS = 2.0
CREATION_DATE  = 
ORIGINATOR     = 

OBJECT_NAME    = STARLINK-36037
OBJECT_ID      = 2025-270AB
CENTER_NAME    = EARTH
REF_FRAME      = TEME
TIME_SYSTEM    = UTC
MEAN_ELEMENT_THEORY = SGP/SGP4

EPOCH          = 2025-12-09T20:00:01.999008
MEAN_MOTION    = 15.54435406
ECCENTRICITY   = .0001519
INCLINATION    = 42.9998
RA_OF_ASC_NODE = 209.6305
ARG_OF_PERICENTER = 271.5708
MEAN_ANOMALY   = 114.5900

EPHEMERIS_TYPE = 0
CLASSIFICATION_TYPE = U
NORAD_CAT_ID   = 66613
ELEMENT_SET_NO = 999
REV_AT_EPOCH   = 393
BSTAR          = -.34735E-1
MEAN_MOTION_DOT = -.2084828E-1
MEAN_MOTION_DDOT = 0

CCSDS_OMM_VERS = 2.0
CREATION_DATE  = 
ORIGINATOR     = 

OBJECT_NAME    = STARLINK-36040
OBJECT_ID      = 2025-270AC
CENTER_NAME    = EARTH
REF_FRAME      = TEME
TIME_SYSTEM    = UTC
MEAN_ELEMENT_THEORY = SGP/SGP4

EPOCH          = 2025-12-09T20:00:01.999008
MEAN_MOTION    = 15.54428545
ECCENTRICITY   = .0001442
INCLINATION    = 42.9995
RA_OF_ASC_NODE = 209.6206
ARG_OF_PERICENTER = 267.4405
MEAN_ANOMALY   = 122.5545

EPHEMERIS_TYPE = 0
CLASSIFICATION_TYPE = U
NORAD_CAT_ID   = 66614
ELEMENT_SET_NO = 999
REV_AT_EPOCH   = 377
BSTAR          = -.34528E-1
MEAN_MOTION_DOT = -.207326E-1
MEAN_MOTION_DDOT = 0

CCSDS_OMM_VERS = 2.0
CREATION_DATE  = 
ORIGINATOR     = 

OBJECT_NAME    = STARLINK-35988
OBJECT_ID      = 2025-270AD
CENTER_NAME    = EARTH
REF_FRAME      = TEME
TIME_SYSTEM    = UTC
MEAN_ELEMENT_THEORY = SGP/SGP4

EPOCH          = 2025-12-09T20:00:01.999008
MEAN_MOTION    = 15.54437772
ECCENTRICITY   = .0001586
INCLINATION    = 42.9994
RA_OF_ASC_NODE = 209.6261
ARG_OF_PERICENTER = 262.6782
MEAN_ANOMALY   = 125.3970

EPHEMERIS_TYPE = 0
CLASSIFICATION_TYPE = U
NORAD_CAT_ID   = 66615
ELEMENT_SET_NO = 999
REV_AT_EPOCH   = 377
BSTAR          = -.34807E-1
MEAN_MOTION_DOT = -.2088902E-1
MEAN_MOTION_DDOT = 0

CCSDS_OMM_VERS = 2.0
CREATION_DATE  = 
ORIGINATOR     = 

OBJECT_NAME    = STARLINK-35391
OBJECT_ID      = 2025-270AE
CENTER_NAME    = EARTH
REF_FRAME      = TEME
TIME_SYSTEM    = UTC
MEAN_ELEMENT_THEORY = SGP/SGP4

EPOCH          = 2025-12-09T20:00:01.999008
MEAN_MOTION    = 15.54441616
ECCENTRICITY   = .0001457
INCLINATION    = 42.9997
RA_OF_ASC_NODE = 209.6162
ARG_OF_PERICENTER = 272.0546
MEAN_ANOMALY   = 119.8529

EPHEMERIS_TYPE = 0
CLASSIFICATION_TYPE = U
NORAD_CAT_ID   = 66616
ELEMENT_SET_NO = 999
REV_AT_EPOCH   = 404
BSTAR          = -.34842E-1
MEAN_MOTION_DOT = -.2090972E-1
MEAN_MOTION_DDOT = 0

CCSDS_OMM_VERS = 2.0
CREATION_DATE  = 
ORIGINATOR     = 

OBJECT_NAME    = STARLINK-35940
OBJECT_ID      = 2025-271A
CENTER_NAME    = EARTH
REF_FRAME      = TEME
TIME_SYSTEM    = UTC
MEAN_ELEMENT_THEORY = SGP/SGP4

EPOCH          = 2025-12-09T20:00:01.999008
MEAN_MOTION    = 15.62629313
ECCENTRICITY   = .000073
INCLINATION    = 53.1593
RA_OF_ASC_NODE = 201.2743
ARG_OF_PERICENTER = 97.8165
MEAN_ANOMALY   = 258.7416

EPHEMERIS_TYPE = 0
CLASSIFICATION_TYPE = U
NORAD_CAT_ID   = 66617
ELEMENT_SET_NO = 999
REV_AT_EPOCH   = 377
BSTAR          = -.25367E-1
MEAN_MOTION_DOT = -.2027475E-1
MEAN_MOTION_DDOT = 0

CCSDS_OMM_VERS = 2.0
CREATION_DATE  = 
ORIGINATOR     = 

OBJECT_NAME    = STARLINK-35970
OBJECT_ID      = 2025-271B
CENTER_NAME    = EARTH
REF_FRAME      = TEME
TIME_SYSTEM    = UTC
MEAN_ELEMENT_THEORY = SGP/SGP4

EPOCH          = 2025-12-09T20:00:01.999008
MEAN_MOTION    = 15.62625888
ECCENTRICITY   = .0000817
INCLINATION    = 53.1590
RA_OF_ASC_NODE = 201.1615
ARG_OF_PERICENTER = 96.9646
MEAN_ANOMALY   = 312.9175

EPHEMERIS_TYPE = 0
CLASSIFICATION_TYPE = U
NORAD_CAT_ID   = 66618
ELEMENT_SET_NO = 999
REV_AT_EPOCH   = 377
BSTAR          = -.25321E-1
MEAN_MOTION_DOT = -.2024092E-1
MEAN_MOTION_DDOT = 0

CCSDS_OMM_VERS = 2.0
CREATION_DATE  = 
ORIGINATOR     = 

OBJECT_NAME    = STARLINK-35951
OBJECT_ID      = 2025-271C
CENTER_NAME    = EARTH
REF_FRAME      = TEME
TIME_SYSTEM    = UTC
MEAN_ELEMENT_THEORY = SGP/SGP4

EPOCH          = 2025-12-09T20:00:01.999008
MEAN_MOTION    = 15.62630240
ECCENTRICITY   = .0000742
INCLINATION    = 53.1593
RA_OF_ASC_NODE = 201.2570
ARG_OF_PERICENTER = 99.1380
MEAN_ANOMALY   = 265.0883

EPHEMERIS_TYPE = 0
CLASSIFICATION_TYPE = U
NORAD_CAT_ID   = 66619
ELEMENT_SET_NO = 999
REV_AT_EPOCH   = 377
BSTAR          = -.25407E-1
MEAN_MOTION_DOT = -.203033E-1
MEAN_MOTION_DDOT = 0

CCSDS_OMM_VERS = 2.0
CREATION_DATE  = 
ORIGINATOR     = 

OBJECT_NAME    = STARLINK-35936
OBJECT_ID      = 2025-271D
CENTER_NAME    = EARTH
REF_FRAME      = TEME
TIME_SYSTEM    = UTC
MEAN_ELEMENT_THEORY = SGP/SGP4

EPOCH          = 2025-12-09T20:00:01.999008
MEAN_MOTION    = 15.62629386
ECCENTRICITY   = .0000698
INCLINATION    = 53.1593
RA_OF_ASC_NODE = 201.2701
ARG_OF_PERICENTER = 96.9207
MEAN_ANOMALY   = 261.5553

EPHEMERIS_TYPE = 0
CLASSIFICATION_TYPE = U
NORAD_CAT_ID   = 66620
ELEMENT_SET_NO = 999
REV_AT_EPOCH   = 377
BSTAR          = -.25385E-1
MEAN_MOTION_DOT = -.202869E-1
MEAN_MOTION_DDOT = 0

CCSDS_OMM_VERS = 2.0
CREATION_DATE  = 
ORIGINATOR     = 

OBJECT_NAME    = STARLINK-35847
OBJECT_ID      = 2025-271E
CENTER_NAME    = EARTH
REF_FRAME      = TEME
TIME_SYSTEM    = UTC
MEAN_ELEMENT_THEORY = SGP/SGP4

EPOCH          = 2025-12-09T20:00:01.999008
MEAN_MOTION    = 15.62629638
ECCENTRICITY   = .0000883
INCLINATION    = 53.1597
RA_OF_ASC_NODE = 201.1538
ARG_OF_PERICENTER = 100.6110
MEAN_ANOMALY   = 312.8101

EPHEMERIS_TYPE = 0
CLASSIFICATION_TYPE = U
NORAD_CAT_ID   = 66621
ELEMENT_SET_NO = 999
REV_AT_EPOCH   = 377
BSTAR          = -.25419E-1
MEAN_MOTION_DOT = -.2031236E-1
MEAN_MOTION_DDOT = 0

CCSDS_OMM_VERS = 2.0
CREATION_DATE  = 
ORIGINATOR     = 

OBJECT_NAME    = STARLINK-35950
OBJECT_ID      = 2025-271F
CENTER_NAME    = EARTH
REF_FRAME      = TEME
TIME_SYSTEM    = UTC
MEAN_ELEMENT_THEORY = SGP/SGP4

EPOCH          = 2025-12-09T20:00:01.999008
MEAN_MOTION    = 15.62627479
ECCENTRICITY   = .0000709
INCLINATION    = 53.1595
RA_OF_ASC_NODE = 201.2541
ARG_OF_PERICENTER = 95.2239
MEAN_ANOMALY   = 270.9198

EPHEMERIS_TYPE = 0
CLASSIFICATION_TYPE = U
NORAD_CAT_ID   = 66622
ELEMENT_SET_NO = 999
REV_AT_EPOCH   = 377
BSTAR          = -.25346E-1
MEAN_MOTION_DOT = -.2025859E-1
MEAN_MOTION_DDOT = 0

